start=new Date('2021-12-13T00:00:00.000Z').valueOf();
sats=[{"INCLINATION":"53.0553","EPHEMERIS_TYPE":"0","SITE":"AFETR","ARG_OF_PERICENTER":"55.7965","EPOCH":"2021-12-12T23:05:16.444032","TIME_SYSTEM":"UTC","APOAPSIS":"548.451","OBJECT_ID":"2021-018F","REF_FRAME":"TEME","ECCENTRICITY":"0.00017510","LAUNCH_DATE":"2021-03-11","MEAN_MOTION_DOT":"-0.00000198","PERIAPSIS":"546.026","COUNTRY_CODE":"US","GP_ID":"191587118","TLE_LINE1":"1 47792U 21018F   21346.96199588 -.00000198  00000-0  56221-5 0  9992","SEMIMAJOR_AXIS":"6925.374","ELEMENT_SET_NO":"999","TLE_LINE2":"2 47792  53.0553 339.6441 0001751  55.7965 304.3190 15.06391759 43602","CLASSIFICATION_TYPE":"U","MEAN_MOTION_DDOT":"0.0000000000000","OBJECT_NAME":"STARLINK-2334","OBJECT_TYPE":"PAYLOAD","MEAN_ANOMALY":"304.3190","MEAN_MOTION":"15.06391759","REV_AT_EPOCH":"4360","FILE":"3238376","RA_OF_ASC_NODE":"339.6441","RCS_SIZE":"LARGE","DECAY_DATE":null,"PERIOD":"95.593","BSTAR":"0.00000562210000","MEAN_ELEMENT_THEORY":"SGP4","CENTER_NAME":"EARTH","NORAD_CAT_ID":"47792"},{"FILE":"3238376","RA_OF_ASC_NODE":"340.7575","REV_AT_EPOCH":"4355","CENTER_NAME":"EARTH","NORAD_CAT_ID":"47793","PERIOD":"95.593","DECAY_DATE":null,"RCS_SIZE":"LARGE","MEAN_ELEMENT_THEORY":"SGP4","BSTAR":"-0.00004125600000","MEAN_ANOMALY":"301.5625","MEAN_MOTION":"15.06390090","OBJECT_TYPE":"PAYLOAD","MEAN_MOTION_DDOT":"0.0000000000000","OBJECT_NAME":"STARLINK-2338","TLE_LINE2":"2 47793  53.0566 340.7575 0001610  58.5522 301.5625 15.06390090 43555","CLASSIFICATION_TYPE":"U","GP_ID":"191587374","ELEMENT_SET_NO":"999","TLE_LINE1":"1 47793U 21018G   21346.71134882 -.00000896  00000-0 -41256-4 0  9999","SEMIMAJOR_AXIS":"6925.379","MEAN_MOTION_DOT":"-0.00000896","PERIAPSIS":"546.129","COUNTRY_CODE":"US","ECCENTRICITY":"0.00016100","LAUNCH_DATE":"2021-03-11","TIME_SYSTEM":"UTC","EPOCH":"2021-12-12T17:04:20.538048","OBJECT_ID":"2021-018G","REF_FRAME":"TEME","APOAPSIS":"548.359","ARG_OF_PERICENTER":"58.5522","SITE":"AFETR","INCLINATION":"53.0566","EPHEMERIS_TYPE":"0"},{"MEAN_ANOMALY":"300.1179","MEAN_MOTION":"15.06393168","RA_OF_ASC_NODE":"340.7562","FILE":"3238376","REV_AT_EPOCH":"4356","NORAD_CAT_ID":"47794","CENTER_NAME":"EARTH","BSTAR":"-0.00003698800000","MEAN_ELEMENT_THEORY":"SGP4","DECAY_DATE":null,"PERIOD":"95.593","RCS_SIZE":"LARGE","CLASSIFICATION_TYPE":"U","TLE_LINE2":"2 47794  53.0555 340.7562 0001781  59.9986 300.1179 15.06393168 43567","TLE_LINE1":"1 47794U 21018H   21346.71504091 -.00000832  00000-0 -36988-4 0  9999","ELEMENT_SET_NO":"999","SEMIMAJOR_AXIS":"6925.369","GP_ID":"191586120","OBJECT_TYPE":"PAYLOAD","OBJECT_NAME":"STARLINK-2341","MEAN_MOTION_DDOT":"0.0000000000000","ECCENTRICITY":"0.00017810","LAUNCH_DATE":"2021-03-11","PERIAPSIS":"546.001","MEAN_MOTION_DOT":"-0.00000832","COUNTRY_CODE":"US","SITE":"AFETR","ARG_OF_PERICENTER":"59.9986","EPHEMERIS_TYPE":"0","INCLINATION":"53.0555","TIME_SYSTEM":"UTC","EPOCH":"2021-12-12T17:09:39.534624","REF_FRAME":"TEME","OBJECT_ID":"2021-018H","APOAPSIS":"548.468"},{"TIME_SYSTEM":"UTC","EPOCH":"2021-12-12T16:53:43.629216","OBJECT_ID":"2021-018J","REF_FRAME":"TEME","APOAPSIS":"548.425","SITE":"AFETR","ARG_OF_PERICENTER":"56.2608","INCLINATION":"53.0571","EPHEMERIS_TYPE":"0","MEAN_MOTION_DOT":"0.00001441","PERIAPSIS":"546.004","COUNTRY_CODE":"US","ECCENTRICITY":"0.00017480","LAUNCH_DATE":"2021-03-11","OBJECT_TYPE":"PAYLOAD","OBJECT_NAME":"STARLINK-2347","MEAN_MOTION_DDOT":"0.0000000000000","CLASSIFICATION_TYPE":"U","TLE_LINE2":"2 47795  53.0571 340.7961 0001748  56.2608 303.8547 15.06399802 43619","GP_ID":"191586372","SEMIMAJOR_AXIS":"6925.349","TLE_LINE1":"1 47795U 21018J   21346.70397719  .00001441  00000-0  11559-3 0  9997","ELEMENT_SET_NO":"999","FILE":"3238376","RA_OF_ASC_NODE":"340.7961","REV_AT_EPOCH":"4361","CENTER_NAME":"EARTH","NORAD_CAT_ID":"47795","DECAY_DATE":null,"PERIOD":"95.592","RCS_SIZE":"LARGE","MEAN_ELEMENT_THEORY":"SGP4","BSTAR":"0.00011559000000","MEAN_ANOMALY":"303.8547","MEAN_MOTION":"15.06399802"},{"LAUNCH_DATE":"2021-03-11","ECCENTRICITY":"0.00018740","COUNTRY_CODE":"US","MEAN_MOTION_DOT":"0.00001534","PERIAPSIS":"545.902","ARG_OF_PERICENTER":"54.9211","SITE":"AFETR","INCLINATION":"53.0560","EPHEMERIS_TYPE":"0","OBJECT_ID":"2021-018K","REF_FRAME":"TEME","APOAPSIS":"548.498","TIME_SYSTEM":"UTC","EPOCH":"2021-12-12T17:14:56.524992","MEAN_MOTION":"15.06404360","MEAN_ANOMALY":"305.1953","CENTER_NAME":"EARTH","NORAD_CAT_ID":"47796","PERIOD":"95.592","DECAY_DATE":null,"RCS_SIZE":"LARGE","MEAN_ELEMENT_THEORY":"SGP4","BSTAR":"0.00012182000000","FILE":"3238376","RA_OF_ASC_NODE":"340.7371","REV_AT_EPOCH":"4356","CLASSIFICATION_TYPE":"U","TLE_LINE2":"2 47796  53.0560 340.7371 0001874  54.9211 305.1953 15.06404360 43564","GP_ID":"191587619","TLE_LINE1":"1 47796U 21018K   21346.71870978  .00001534  00000-0  12182-3 0  9998","ELEMENT_SET_NO":"999","SEMIMAJOR_AXIS":"6925.335","OBJECT_TYPE":"PAYLOAD","MEAN_MOTION_DDOT":"0.0000000000000","OBJECT_NAME":"STARLINK-2373"},{"ECCENTRICITY":"0.00017220","LAUNCH_DATE":"2021-03-11","PERIAPSIS":"546.022","MEAN_MOTION_DOT":"0.00000993","COUNTRY_CODE":"US","EPHEMERIS_TYPE":"0","INCLINATION":"53.0563","ARG_OF_PERICENTER":"63.3498","SITE":"AFETR","EPOCH":"2021-12-12T18:07:22.189152","TIME_SYSTEM":"UTC","APOAPSIS":"548.407","REF_FRAME":"TEME","OBJECT_ID":"2021-018L","MEAN_ANOMALY":"296.7667","MEAN_MOTION":"15.06399606","REV_AT_EPOCH":"4321","RA_OF_ASC_NODE":"5.5542","FILE":"3238376","BSTAR":"0.00008556700000","MEAN_ELEMENT_THEORY":"SGP4","PERIOD":"95.592","DECAY_DATE":null,"RCS_SIZE":"MEDIUM","NORAD_CAT_ID":"47797","CENTER_NAME":"EARTH","SEMIMAJOR_AXIS":"6925.350","TLE_LINE1":"1 47797U 21018L   21346.75511793  .00000993  00000-0  85567-4 0  9996","ELEMENT_SET_NO":"999","GP_ID":"191587875","TLE_LINE2":"2 47797  53.0563   5.5542 0001722  63.3498 296.7667 15.06399606 43212","CLASSIFICATION_TYPE":"U","MEAN_MOTION_DDOT":"0.0000000000000","OBJECT_NAME":"STARLINK-2377","OBJECT_TYPE":"PAYLOAD"},{"CLASSIFICATION_TYPE":"U","TLE_LINE2":"2 47798  53.0567 340.6755 0001697  55.1060 305.0088 15.06400703 43561","GP_ID":"191586621","TLE_LINE1":"1 47798U 21018M   21346.72978364  .00001077  00000-0  91174-4 0  9990","ELEMENT_SET_NO":"999","SEMIMAJOR_AXIS":"6925.346","OBJECT_TYPE":"PAYLOAD","MEAN_MOTION_DDOT":"0.0000000000000","OBJECT_NAME":"STARLINK-2379","MEAN_ANOMALY":"305.0088","MEAN_MOTION":"15.06400703","FILE":"3238376","RA_OF_ASC_NODE":"340.6755","REV_AT_EPOCH":"4356","CENTER_NAME":"EARTH","NORAD_CAT_ID":"47798","PERIOD":"95.592","DECAY_DATE":null,"RCS_SIZE":"LARGE","BSTAR":"0.00009117400000","MEAN_ELEMENT_THEORY":"SGP4","ARG_OF_PERICENTER":"55.1060","SITE":"AFETR","INCLINATION":"53.0567","EPHEMERIS_TYPE":"0","TIME_SYSTEM":"UTC","EPOCH":"2021-12-12T17:30:53.306496","OBJECT_ID":"2021-018M","REF_FRAME":"TEME","APOAPSIS":"548.387","ECCENTRICITY":"0.00016970","LAUNCH_DATE":"2021-03-11","MEAN_MOTION_DOT":"0.00001077","PERIAPSIS":"546.036","COUNTRY_CODE":"US"},{"ECCENTRICITY":"0.00016430","LAUNCH_DATE":"2021-03-11","MEAN_MOTION_DOT":"0.00001049","PERIAPSIS":"546.083","COUNTRY_CODE":"US","INCLINATION":"53.0561","EPHEMERIS_TYPE":"0","ARG_OF_PERICENTER":"62.1342","SITE":"AFETR","EPOCH":"2021-12-12T17:25:34.987296","TIME_SYSTEM":"UTC","APOAPSIS":"548.358","OBJECT_ID":"2021-018N","REF_FRAME":"TEME","MEAN_ANOMALY":"297.9813","MEAN_MOTION":"15.06397788","REV_AT_EPOCH":"4355","FILE":"3238376","RA_OF_ASC_NODE":"340.7069","PERIOD":"95.592","DECAY_DATE":null,"RCS_SIZE":"LARGE","BSTAR":"0.00008928700000","MEAN_ELEMENT_THEORY":"SGP4","CENTER_NAME":"EARTH","NORAD_CAT_ID":"47799","GP_ID":"191586873","TLE_LINE1":"1 47799U 21018N   21346.72609939  .00001049  00000-0  89287-4 0  9991","ELEMENT_SET_NO":"999","SEMIMAJOR_AXIS":"6925.355","TLE_LINE2":"2 47799  53.0561 340.7069 0001643  62.1342 297.9813 15.06397788 43559","CLASSIFICATION_TYPE":"U","MEAN_MOTION_DDOT":"0.0000000000000","OBJECT_NAME":"STARLINK-2380","OBJECT_TYPE":"PAYLOAD"},{"OBJECT_TYPE":"PAYLOAD","MEAN_MOTION_DDOT":"0.0000000000000","OBJECT_NAME":"STARLINK-2381","CLASSIFICATION_TYPE":"U","TLE_LINE2":"2 47800  53.0570 340.8972 0001880  58.3142 301.8030 15.06398358 43554","GP_ID":"191587119","SEMIMAJOR_AXIS":"6925.354","TLE_LINE1":"1 47800U 21018P   21346.68186376 -.00000647  00000-0 -24562-4 0  9994","ELEMENT_SET_NO":"999","CENTER_NAME":"EARTH","NORAD_CAT_ID":"47800","DECAY_DATE":null,"PERIOD":"95.592","RCS_SIZE":"LARGE","MEAN_ELEMENT_THEORY":"SGP4","BSTAR":"-0.00002456200000","FILE":"3238376","RA_OF_ASC_NODE":"340.8972","REV_AT_EPOCH":"4355","MEAN_MOTION":"15.06398358","MEAN_ANOMALY":"301.8030","OBJECT_ID":"2021-018P","REF_FRAME":"TEME","APOAPSIS":"548.521","TIME_SYSTEM":"UTC","EPOCH":"2021-12-12T16:21:53.028864","ARG_OF_PERICENTER":"58.3142","SITE":"AFETR","INCLINATION":"53.0570","EPHEMERIS_TYPE":"0","COUNTRY_CODE":"US","MEAN_MOTION_DOT":"-0.00000647","PERIAPSIS":"545.917","LAUNCH_DATE":"2021-03-11","ECCENTRICITY":"0.00018800"},{"REV_AT_EPOCH":"4349","FILE":"3238376","RA_OF_ASC_NODE":"345.8136","DECAY_DATE":null,"PERIOD":"95.696","RCS_SIZE":"LARGE","MEAN_ELEMENT_THEORY":"SGP4","BSTAR":"-0.00004059400000","CENTER_NAME":"EARTH","NORAD_CAT_ID":"47801","MEAN_ANOMALY":"310.7579","MEAN_MOTION":"15.04764471","OBJECT_NAME":"STARLINK-2382","MEAN_MOTION_DDOT":"0.0000000000000","OBJECT_TYPE":"PAYLOAD","GP_ID":"191587375","TLE_LINE1":"1 47801U 21018Q   21346.70833589 -.00000856  00000-0 -40594-4 0  9998","SEMIMAJOR_AXIS":"6930.366","ELEMENT_SET_NO":"999","TLE_LINE2":"2 47801  53.0566 345.8136 0001742  49.3561 310.7579 15.04764471 43490","CLASSIFICATION_TYPE":"U","MEAN_MOTION_DOT":"-0.00000856","PERIAPSIS":"551.023","COUNTRY_CODE":"US","ECCENTRICITY":"0.00017420","LAUNCH_DATE":"2021-03-11","EPOCH":"2021-12-12T17:00:00.220896","TIME_SYSTEM":"UTC","APOAPSIS":"553.438","OBJECT_ID":"2021-018Q","REF_FRAME":"TEME","INCLINATION":"53.0566","EPHEMERIS_TYPE":"0","SITE":"AFETR","ARG_OF_PERICENTER":"49.3561"}];
